[{"OBJECT_NAME":"STARLINK-30257","OBJECT_ID":"2023-115F","EPOCH":"2026-03-09T04:31:59.086848","MEAN_MOTION":15.27583134,"ECCENTRICITY":4.864e-5,"INCLINATION":42.9962,"RA_OF_ASC_NODE":4.535,"ARG_OF_PERICENTER":232.5488,"MEAN_ANOMALY":127.5319,"EPHEMERIS_TYPE":0,"CLASSIFICATION_TYPE":"U","NORAD_CAT_ID":57526,"ELEMENT_SET_NO":999,"REV_AT_EPOCH":14227,"BSTAR":7.862592e-6,"MEAN_MOTION_DOT":-4.5e-7,"MEAN_MOTION_DDOT":0},{"OBJECT_NAME":"OBJECT M","OBJECT_ID":"2024-205M","EPOCH":"2026-03-09T22:23:47.520096","MEAN_MOTION":15.27663844,"ECCENTRICITY":0.00036602,"INCLINATION":97.3915,"RA_OF_ASC_NODE":144.193,"ARG_OF_PERICENTER":310.2554,"MEAN_ANOMALY":49.8364,"EPHEMERIS_TYPE":0,"CLASSIFICATION_TYPE":"U","NORAD_CAT_ID":61905,"ELEMENT_SET_NO":999,"REV_AT_EPOCH":7334,"BSTAR":0.00036391974,"MEAN_MOTION_DOT":9.771e-5,"MEAN_MOTION_DDOT":0}]
